0 DELTA 1 DEB
1 07130U 73086CU  13281.38954346  .00003334  00000-0  10062-1 0   457
2 07130 102.4197 229.7828 0069756 087.5354 032.5565 13.07012227849956
0 DELTA 1 DEB
1 07130U 73086CU  13282.83038395  .00003803  00000-0  11449-1 0   467
2 07130 102.4188 231.4434 0070207 084.6123 332.0444 13.07025171850143
0 DELTA 1 DEB
1 07130U 73086CU  13285.44576552  .00004223  00000-0  12687-1 0   472
2 07130 102.4180 234.4575 0070757 079.4916 037.9880 13.07043644850483
0 DELTA 1 DEB
1 07130U 73086CU  13287.80520885  .00005536  00000-0  16570-1 0   486
2 07130 102.4178 237.1769 0071442 074.6471 340.0713 13.07062398850794
0 DELTA 1 DEB
1 07130U 73086CU  13290.35204749  .00005651  00000-0  16900-1 0   494
2 07130 102.4187 240.1122 0072122 069.6164 083.9345 13.07088739851129
0 DELTA 1 DEB
1 07130U 73086CU  13292.78174972  .00005072  00000-0  15176-1 0   500
2 07130 102.4173 242.9108 0072948 064.8236 356.8419 13.07114242851449
0 DELTA 1 DEB
1 07130U 73086CU  13294.84725909  .00004692  00000-0  14045-1 0   513
2 07130 102.4173 245.2929 0073456 060.8066 356.1557 13.07133038851718
